{
  "type": "FeatureCollection",
  "features": [
    {
      "type": "Feature",
      "properties": {
        "norad_id": 66512,
        "name": "STARLINK-35366",
        "group": "last-30-days",
        "lat": -37.58268543693544,
        "lon": 32.466566285157164,
        "alt_km": 405.0684175148308,
        "timestamp": "2025-12-07T07:31:35.085894+00:00",
        "meta_object_name": "STARLINK-35366",
        "meta_object_id": "2025-263AD",
        "meta_epoch": "2025-12-07T00:00:02.000160",
        "meta_mean_motion": 15.5610954,
        "meta_eccentricity": 0.00016374,
        "meta_inclination": 42.9997,
        "meta_ra_of_asc_node": 158.6326,
        "meta_arg_of_pericenter": 265.1628,
        "meta_mean_anomaly": 20.2952,
        "meta_ephemeris_type": 0,
        "meta_classification_type": "U",
        "meta_norad_cat_id": 66512,
        "meta_element_set_no": 999,
        "meta_rev_at_epoch": 471,
        "meta_bstar": -0.03209793,
        "meta_mean_motion_dot": -0.02054319,
        "meta_mean_motion_ddot": 0,
        "tle_line1": "1 66512U 25263AD  25341.00002315 -.02054319  00000+0 -32098-1 0  9992",
        "tle_line2": "2 66512  42.9997 158.6326 0001637 265.1628  20.2952 15.56109540  4718"
      },
      "geometry": {
        "type": "Point",
        "coordinates": [
          32.466566285157164,
          -37.58268543693544
        ]
      }
    },
    {
      "type": "Feature",
      "properties": {
        "norad_id": 66513,
        "name": "STARLINK-35692",
        "group": "last-30-days",
        "lat": -35.19398248209793,
        "lon": 25.986843792246813,
        "alt_km": 404.97750749444276,
        "timestamp": "2025-12-07T07:31:35.085904+00:00",
        "meta_object_name": "STARLINK-35692",
        "meta_object_id": "2025-263AE",
        "meta_epoch": "2025-12-07T00:00:02.000160",
        "meta_mean_motion": 15.56104688,
        "meta_eccentricity": 0.00017026,
        "meta_inclination": 42.9996,
        "meta_ra_of_asc_node": 158.6468,
        "meta_arg_of_pericenter": 266.0613,
        "meta_mean_anomaly": 13.6485,
        "meta_ephemeris_type": 0,
        "meta_classification_type": "U",
        "meta_norad_cat_id": 66513,
        "meta_element_set_no": 999,
        "meta_rev_at_epoch": 471,
        "meta_bstar": -0.031993521,
        "meta_mean_motion_dot": -0.02048063,
        "meta_mean_motion_ddot": 0,
        "tle_line1": "1 66513U 25263AE  25341.00002315 -.02048063  00000+0 -31994-1 0  9996",
        "tle_line2": "2 66513  42.9996 158.6468 0001702 266.0613  13.6485 15.56104688  4717"
      },
      "geometry": {
        "type": "Point",
        "coordinates": [
          25.986843792246813,
          -35.19398248209793
        ]
      }
    },
    {
      "type": "Feature",
      "properties": {
        "norad_id": 66514,
        "name": "SENTINEL-6B",
        "group": "last-30-days",
        "lat": -63.37578794254155,
        "lon": 56.22706974945194,
        "alt_km": 1315.4797996756852,
        "timestamp": "2025-12-07T07:31:35.085914+00:00",
        "meta_object_name": "SENTINEL-6B",
        "meta_object_id": "2025-264A",
        "meta_epoch": "2025-12-05T07:31:22.416096",
        "meta_mean_motion": 12.85877769,
        "meta_eccentricity": 0.00115488,
        "meta_inclination": 66.0393,
        "meta_ra_of_asc_node": 177.917,
        "meta_arg_of_pericenter": 268.4031,
        "meta_mean_anomaly": 91.5664,
        "meta_ephemeris_type": 0,
        "meta_classification_type": "U",
        "meta_norad_cat_id": 66514,
        "meta_element_set_no": 999,
        "meta_rev_at_epoch": 233,
        "meta_bstar": 0.00030181714,
        "meta_mean_motion_dot": 1.3e-07,
        "meta_mean_motion_ddot": 0,
        "tle_line1": "1 66514U 25264A   25339.31345389  .00000013  00000+0  30182-3 0  9999",
        "tle_line2": "2 66514  66.0393 177.9170 0011548 268.4031  91.5664 12.85877769  2335"
      },
      "geometry": {
        "type": "Point",
        "coordinates": [
          56.22706974945194,
          -63.37578794254155
        ]
      }
    },
    {
      "type": "Feature",
      "properties": {
        "norad_id": 66516,
        "name": "STARLINK-35924",
        "group": "last-30-days",
        "lat": -1.5999029791030888,
        "lon": 84.16609081268633,
        "alt_km": 381.62610016849885,
        "timestamp": "2025-12-07T07:31:35.085924+00:00",
        "meta_object_name": "STARLINK-35924",
        "meta_object_id": "2025-265A",
        "meta_epoch": "2025-12-07T00:00:02.000160",
        "meta_mean_motion": 15.63368724,
        "meta_eccentricity": 0.00016479,
        "meta_inclination": 43.0007,
        "meta_ra_of_asc_node": 87.7518,
        "meta_arg_of_pericenter": 282.7805,
        "meta_mean_anomaly": 108.7444,
        "meta_ephemeris_type": 0,
        "meta_classification_type": "U",
        "meta_norad_cat_id": 66516,
        "meta_element_set_no": 999,
        "meta_rev_at_epoch": 405,
        "meta_bstar": -0.024210443,
        "meta_mean_motion_dot": -0.0201339,
        "meta_mean_motion_ddot": 0,
        "tle_line1": "1 66516U 25265A   25341.00002315 -.02013390  00000+0 -24210-1 0  9999",
        "tle_line2": "2 66516  43.0007  87.7518 0001647 282.7805 108.7444 15.63368724  4058"
      },
      "geometry": {
        "type": "Point",
        "coordinates": [
          84.16609081268633,
          -1.5999029791030888
        ]
      }
    },
    {
      "type": "Feature",
      "properties": {
        "norad_id": 66517,
        "name": "STARLINK-35937",
        "group": "last-30-days",
        "lat": -0.29322921192579376,
        "lon": 85.56489304054823,
        "alt_km": 381.52725685042515,
        "timestamp": "2025-12-07T07:31:35.085934+00:00",
        "meta_object_name": "STARLINK-35937",
        "meta_object_id": "2025-265B",
        "meta_epoch": "2025-12-07T00:00:02.000160",
        "meta_mean_motion": 15.63370728,
        "meta_eccentricity": 0.00016055,
        "meta_inclination": 43.0005,
        "meta_ra_of_asc_node": 87.7477,
        "meta_arg_of_pericenter": 281.8741,
        "meta_mean_anomaly": 111.5663,
        "meta_ephemeris_type": 0,
        "meta_classification_type": "U",
        "meta_norad_cat_id": 66517,
        "meta_element_set_no": 999,
        "meta_rev_at_epoch": 407,
        "meta_bstar": -0.024232117,
        "meta_mean_motion_dot": -0.02015077,
        "meta_mean_motion_ddot": 0,
        "tle_line1": "1 66517U 25265B   25341.00002315 -.02015077  00000+0 -24232-1 0  9998",
        "tle_line2": "2 66517  43.0005  87.7477 0001605 281.8741 111.5663 15.63370728  4078"
      },
      "geometry": {
        "type": "Point",
        "coordinates": [
          85.56489304054823,
          -0.29322921192579376
        ]
      }
    },
    {
      "type": "Feature",
      "properties": {
        "norad_id": 66518,
        "name": "STARLINK-35962",
        "group": "last-30-days",
        "lat": 1.0142351464507071,
        "lon": 86.96265187743121,
        "alt_km": 381.35998320598264,
        "timestamp": "2025-12-07T07:31:35.085944+00:00",
        "meta_object_name": "STARLINK-35962",
        "meta_object_id": "2025-265C",
        "meta_epoch": "2025-12-07T00:00:02.000160",
        "meta_mean_motion": 15.63369358,
        "meta_eccentricity": 0.00016625,
        "meta_inclination": 43.0005,
        "meta_ra_of_asc_node": 87.7422,
        "meta_arg_of_pericenter": 283.0488,
        "meta_mean_anomaly": 112.3095,
        "meta_ephemeris_type": 0,
        "meta_classification_type": "U",
        "meta_norad_cat_id": 66518,
        "meta_element_set_no": 999,
        "meta_rev_at_epoch": 407,
        "meta_bstar": -0.024213882,
        "meta_mean_motion_dot": -0.02013697,
        "meta_mean_motion_ddot": 0,
        "tle_line1": "1 66518U 25265C   25341.00002315 -.02013697  00000+0 -24214-1 0  9995",
        "tle_line2": "2 66518  43.0005  87.7422 0001662 283.0488 112.3095 15.63369358  4079"
      },
      "geometry": {
        "type": "Point",
        "coordinates": [
          86.96265187743121,
          1.0142351464507071
        ]
      }
    },
    {
      "type": "Feature",
      "properties": {
        "norad_id": 66519,
        "name": "STARLINK-35931",
        "group": "last-30-days",
        "lat": 2.320513175616716,
        "lon": 88.36179745525219,
        "alt_km": 381.20924900153113,
        "timestamp": "2025-12-07T07:31:35.085956+00:00",
        "meta_object_name": "STARLINK-35931",
        "meta_object_id": "2025-265D",
        "meta_epoch": "2025-12-07T00:00:02.000160",
        "meta_mean_motion": 15.63369925,
        "meta_eccentricity": 0.00016586,
        "meta_inclination": 43.0009,
        "meta_ra_of_asc_node": 87.7376,
        "meta_arg_of_pericenter": 283.8121,
        "meta_mean_anomaly": 113.4625,
        "meta_ephemeris_type": 0,
        "meta_classification_type": "U",
        "meta_norad_cat_id": 66519,
        "meta_element_set_no": 999,
        "meta_rev_at_epoch": 407,
        "meta_bstar": -0.0242205,
        "meta_mean_motion_dot": -0.02014216,
        "meta_mean_motion_ddot": 0,
        "tle_line1": "1 66519U 25265D   25341.00002315 -.02014216  00000+0 -24221-1 0  9992",
        "tle_line2": "2 66519  43.0009  87.7376 0001658 283.8121 113.4625 15.63369925  4070"
      },
      "geometry": {
        "type": "Point",
        "coordinates": [
          88.36179745525219,
          2.320513175616716
        ]
      }
    }
  ]
}